H1 CPF  1  DLR 2021 05 25 10  6452 technosat            
H2  1704205 6203    42829 2021 05 25 00 00 00 2021 06 01 00 00 00    60 1 1  0 0 0
H9
10 0 59359  14400.000000  0       1498731.999       6182459.356      -2876435.281
10 0 59359  14460.000000  0       1629592.606       6326829.254      -2462066.334
10 0 59359  14520.000000  0       1754754.945       6443519.833      -2037287.544
10 0 59359  14580.000000  0       1873448.118       6532089.601      -1603893.510
10 0 59359  14640.000000  0       1984925.096       6592222.316      -1163716.050
10 0 59359  14700.000000  0       2088467.028       6623728.216       -718616.328
10 0 59359  14760.000000  0       2183387.427       6626544.660       -270476.846
10 0 59359  14820.000000  0       2269036.212       6600736.153        178806.667
10 0 59359  14880.000000  0       2344803.598       6546493.772        627333.421
10 0 59359  14940.000000  0       2410123.791       6464134.008       1073205.751
10 0 59359  15000.000000  0       2464478.483       6354097.009       1514537.314
10 0 59359  15060.000000  0       2507400.102       6216944.231       1949461.207
10 0 59359  15120.000000  0       2538474.820       6053355.542       2376137.989
10 0 59359  15180.000000  0       2557345.304       5864125.789       2792763.569
10 0 59359  15240.000000  0       2563713.219       5650160.825       3197576.955
10 0 59359  15300.000000  0       2557341.385       5412472.998       3588867.777
10 0 59359  15360.000000  0       2538055.605       5152176.237       3964983.541
10 0 59359  15420.000000  0       2505746.241       4870480.682       4324336.702
10 0 59359  15480.000000  0       2460369.364       4568686.696       4665411.437
10 0 59359  15540.000000  0       2401947.521       4248178.512       4986769.816
10 0 59359  15600.000000  0       2330570.264       3910417.760       5287057.625
10 0 59359  15660.000000  0       2246394.362       3556936.678       5565009.885
10 0 59359  15720.000000  0       2149643.714       3189331.074       5819455.982
10 0 59359  15780.000000  0       2040608.899       2809253.069       6049324.451
10 0 59359  15840.000000  0       1919646.371       2418403.592       6253647.338
10 0 59359  15900.000000  0       1787177.322       2018524.684       6431564.095
10 0 59359  15960.000000  0       1643686.246       1611391.696       6582324.991
10 0 59359  16020.000000  0       1489719.164       1198805.403       6705294.057
10 0 59359  16080.000000  0       1325881.570        782584.111       6799951.550
10 0 59359  16140.000000  0       1152836.093        364555.796       6865896.012
10 0 59359  16200.000000  0        971299.876        -53449.762       6902845.976
10 0 59359  16260.000000  0        782041.639       -469608.958       6910641.250
10 0 59359  16320.000000  0        585878.471       -882112.301       6889243.591
10 0 59359  16380.000000  0        383672.349      -1289172.193       6838736.943
10 0 59359  16440.000000  0        176326.395      -1689030.632       6759327.205
10 0 59359  16500.000000  0        -35219.100      -2079966.768       6651341.534
10 0 59359  16560.000000  0       -249990.903      -2460304.341       6515227.172
10 0 59359  16620.000000  0       -466987.225      -2828418.917       6351549.700
10 0 59359  16680.000000  0       -685182.262      -3182744.797       6160990.855
10 0 59359  16740.000000  0       -903530.921      -3521781.707       5944345.959
10 0 59359  16800.000000  0      -1120973.698      -3844101.244       5702520.924
10 0 59359  16860.000000  0      -1336441.760      -4148353.064       5436528.848
10 0 59359  16920.000000  0      -1548862.196      -4433270.796       5147486.116
10 0 59359  16980.000000  0      -1757163.349      -4697677.629       4836607.996
10 0 59359  17040.000000  0      -1960280.228      -4940491.513       4505203.770
10 0 59359  17100.000000  0      -2157159.975      -5160729.981       4154671.394
10 0 59359  17160.000000  0      -2346767.336      -5357514.464       3786491.657
10 0 59359  17220.000000  0      -2528090.085      -5530074.078       3402221.956
10 0 59359  17280.000000  0      -2700144.395      -5677748.929       3003489.736
10 0 59359  17340.000000  0      -2861980.134      -5799992.909       2591985.589
10 0 59359  17400.000000  0      -3012686.053      -5896375.986       2169456.007
10 0 59359  17460.000000  0      -3151394.828      -5966585.922       1737695.850
10 0 59359  17520.000000  0      -3277287.935      -6010429.439       1298540.539
10 0 59359  17580.000000  0      -3389600.308      -6027832.781        853858.023
10 0 59359  17640.000000  0      -3487624.756      -6018841.688        405540.587
10 0 59359  17700.000000  0      -3570716.125      -5983620.811        -44503.484
10 0 59359  17760.000000  0      -3638295.161      -5922452.514       -494358.368
10 0 59359  17820.000000  0      -3689852.044      -5835735.072       -942109.207
10 0 59359  17880.000000  0      -3724949.580      -5723980.283      -1385850.592
10 0 59359  17940.000000  0      -3743226.020      -5587810.512      -1823695.001
10 0 59359  18000.000000  0      -3744397.510      -5427955.202      -2253781.126
10 0 59359  18060.000000  0      -3728260.125      -5245246.850      -2674282.062
10 0 59359  18120.000000  0      -3694691.485      -5040616.481      -3083413.290
10 0 59359  18180.000000  0      -3643651.933      -4815088.691      -3479440.403
10 0 59359  18240.000000  0      -3575185.312      -4569776.272      -3860686.554
10 0 59359  18300.000000  0      -3489419.315      -4305874.466      -4225539.571
10 0 59359  18360.000000  0      -3386565.437      -4024654.911      -4572458.772
10 0 59359  18420.000000  0      -3266918.496      -3727459.242      -4899981.410
10 0 59359  18480.000000  0      -3130855.761      -3415692.436      -5206728.707
10 0 59359  18540.000000  0      -2978835.680      -3090815.931      -5491411.475
10 0 59359  18600.000000  0      -2811396.225      -2754340.578      -5752835.316
10 0 59359  18660.000000  0      -2629152.865      -2407819.467      -5989905.384
10 0 59359  18720.000000  0      -2432796.157      -2052840.612      -6201630.755
10 0 59359  18780.000000  0      -2223088.944      -1691019.536      -6387128.274
10 0 59359  18840.000000  0      -2000863.247      -1323991.850      -6545625.886
10 0 59359  18900.000000  0      -1767016.859       -953405.828      -6676465.527
10 0 59359  18960.000000  0      -1522509.636       -580915.018      -6779105.500
10 0 59359  19020.000000  0      -1268359.550       -208170.942      -6853122.398
10 0 59359  19080.000000  0      -1005638.462        163184.090      -6898212.642
10 0 59359  19140.000000  0       -735467.583        531524.090      -6914193.582
10 0 59359  19200.000000  0       -459012.714        895246.430      -6901004.094
10 0 59359  19260.000000  0       -177479.278       1252778.690      -6858704.643
10 0 59359  19320.000000  0        107892.781       1602585.238      -6787476.982
10 0 59359  19380.000000  0        395834.353       1943173.750      -6687623.546
10 0 59359  19440.000000  0        685052.818       2273101.559      -6559566.231
10 0 59359  19500.000000  0        974237.809       2590981.662      -6403844.664
10 0 59359  19560.000000  0       1262067.033       2895488.532      -6221114.058
10 0 59359  19620.000000  0       1547212.213       3185363.650      -6012142.601
10 0 59359  19680.000000  0       1828345.165       3459420.680      -5777808.417
10 0 59359  19740.000000  0       2104143.924       3716550.331      -5519096.108
10 0 59359  19800.000000  0       2373298.905       3955724.922      -5237092.872
10 0 59359  19860.000000  0       2634519.090       4176002.604      -4932984.169
10 0 59359  19920.000000  0       2886538.217       4376531.222      -4608048.973
10 0 59359  19980.000000  0       3128120.914       4556551.767      -4263654.570
10 0 59359  20040.000000  0       3358068.757       4715401.376      -3901250.976
10 0 59359  20100.000000  0       3575226.231       4852515.929      -3522365.030
10 0 59359  20160.000000  0       3778486.634       4967432.219      -3128594.052
10 0 59359  20220.000000  0       3966797.740       5059789.570      -2721599.110
10 0 59359  20280.000000  0       4139167.202       5129330.977      -2303098.062
10 0 59359  20340.000000  0       4294667.772       5175903.817      -1874858.345
10 0 59359  20400.000000  0       4432442.258       5199460.100      -1438689.467
10 0 59359  20460.000000  0       4551708.221       5200056.202       -996435.252
10 0 59359  20520.000000  0       4651762.303       5177852.015       -549965.875
10 0 59359  20580.000000  0       4731984.155       5133109.589       -101169.818
10 0 59359  20640.000000  0       4791839.982       5066191.310        348054.269
10 0 59359  20700.000000  0       4830885.653       4977557.610        795805.730
10 0 59359  20760.000000  0       4848769.426       4867764.285       1240190.044
10 0 59359  20820.000000  0       4845234.325       4737459.352       1679326.978
10 0 59359  20880.000000  0       4820120.068       4587379.448       2111358.748
10 0 59359  20940.000000  0       4773364.460       4418345.757       2534458.114
10 0 59359  21000.000000  0       4705004.222       4231259.543       2946836.250
10 0 59359  21060.000000  0       4615175.398       4027097.373       3346750.346
10 0 59359  21120.000000  0       4504113.306       3806905.991       3732511.056
10 0 59359  21180.000000  0       4372151.944       3571796.867       4102489.611
10 0 59359  21240.000000  0       4219723.015       3322940.564       4455124.576
10 0 59359  21300.000000  0       4047354.617       3061560.922       4788928.407
10 0 59359  21360.000000  0       3855669.283       2788928.945       5102493.842
10 0 59359  21420.000000  0       3645381.433       2506356.449       5394499.604
10 0 59359  21480.000000  0       3417294.622       2215189.789       5663715.683
10 0 59359  21540.000000  0       3172298.400       1916803.434       5909008.362
99
